start=new Date('2022-07-11T00:00:00.000Z').valueOf();
sats=[{"APOAPSIS":"548.244","MEAN_MOTION_DOT":"-0.00002619","ECCENTRICITY":"0.00014180","PERIAPSIS":"546.280","NORAD_CAT_ID":"48322","TLE_LINE1":"1 48322U 21036AY  22191.82556787 -.00002619  00000-0 -15706-3 0  9996","DECAY_DATE":null,"MEAN_MOTION_DDOT":"0.0000000000000","SITE":"AFETR","ARG_OF_PERICENTER":"95.2721","EPHEMERIS_TYPE":"0","CLASSIFICATION_TYPE":"U","BSTAR":"-0.00015706000000","EPOCH":"2022-07-10T19:48:49.063968","ELEMENT_SET_NO":"999","CENTER_NAME":"EARTH","PERIOD":"95.593","SEMIMAJOR_AXIS":"6925.397","REF_FRAME":"TEME","LAUNCH_DATE":"2021-04-29","RCS_SIZE":"LARGE","OBJECT_ID":"2021-036AY","OBJECT_TYPE":"PAYLOAD","TLE_LINE2":"2 48322  53.0566 347.5243 0001418  95.2721 264.8430 15.06384235 66381","REV_AT_EPOCH":"6638","FILE":"3511318","TIME_SYSTEM":"UTC","COUNTRY_CODE":"US","INCLINATION":"53.0566","MEAN_ANOMALY":"264.8430","MEAN_ELEMENT_THEORY":"SGP4","GP_ID":"207874376","OBJECT_NAME":"STARLINK-2477","MEAN_MOTION":"15.06384235","RA_OF_ASC_NODE":"347.5243"},{"TIME_SYSTEM":"UTC","COUNTRY_CODE":"US","INCLINATION":"53.0551","REV_AT_EPOCH":"6637","FILE":"3511318","TLE_LINE2":"2 48323  53.0551 347.8386 0001458  80.2200 279.8954 15.06379938 66377","OBJECT_TYPE":"PAYLOAD","OBJECT_ID":"2021-036AZ","RCS_SIZE":"LARGE","LAUNCH_DATE":"2021-04-29","REF_FRAME":"TEME","ELEMENT_SET_NO":"999","PERIOD":"95.593","CENTER_NAME":"EARTH","SEMIMAJOR_AXIS":"6925.410","MEAN_MOTION":"15.06379938","RA_OF_ASC_NODE":"347.8386","OBJECT_NAME":"STARLINK-2515","GP_ID":"207875120","MEAN_ANOMALY":"279.8954","MEAN_ELEMENT_THEORY":"SGP4","PERIAPSIS":"546.265","ECCENTRICITY":"0.00014580","MEAN_MOTION_DOT":"-0.00003106","APOAPSIS":"548.285","EPOCH":"2022-07-10T18:07:57.803232","BSTAR":"-0.00018982000000","CLASSIFICATION_TYPE":"U","ARG_OF_PERICENTER":"80.2200","EPHEMERIS_TYPE":"0","MEAN_MOTION_DDOT":"0.0000000000000","SITE":"AFETR","DECAY_DATE":null,"NORAD_CAT_ID":"48323","TLE_LINE1":"1 48323U 21036AZ  22191.75553013 -.00003106  00000-0 -18982-3 0  9999"},{"MEAN_MOTION_DOT":"0.00014185","APOAPSIS":"548.288","PERIAPSIS":"546.212","ECCENTRICITY":"0.00014990","MEAN_MOTION_DDOT":"0.0000000000000","SITE":"AFETR","DECAY_DATE":null,"NORAD_CAT_ID":"48324","TLE_LINE1":"1 48324U 21036BA  22191.81724718  .00014185  00000-0  96960-3 0  9998","EPOCH":"2022-07-10T19:36:50.156352","BSTAR":"0.00096960000000","CLASSIFICATION_TYPE":"U","EPHEMERIS_TYPE":"0","ARG_OF_PERICENTER":"82.0511","OBJECT_TYPE":"PAYLOAD","OBJECT_ID":"2021-036BA","LAUNCH_DATE":"2021-04-29","RCS_SIZE":"LARGE","REF_FRAME":"TEME","ELEMENT_SET_NO":"999","SEMIMAJOR_AXIS":"6925.385","PERIOD":"95.593","CENTER_NAME":"EARTH","TIME_SYSTEM":"UTC","INCLINATION":"53.0534","COUNTRY_CODE":"US","REV_AT_EPOCH":"6637","FILE":"3511318","TLE_LINE2":"2 48324  53.0534 347.5429 0001499  82.0511 278.0648 15.06388105 66371","OBJECT_NAME":"STARLINK-2527","GP_ID":"207873875","MEAN_ELEMENT_THEORY":"SGP4","MEAN_ANOMALY":"278.0648","MEAN_MOTION":"15.06388105","RA_OF_ASC_NODE":"347.5429"},{"TIME_SYSTEM":"UTC","INCLINATION":"53.0550","COUNTRY_CODE":"US","REV_AT_EPOCH":"6695","FILE":"3511175","TLE_LINE2":"2 48325  53.0550 348.1832 0001589  72.8613 287.2549 15.06369471 66956","OBJECT_ID":"2021-036BB","OBJECT_TYPE":"PAYLOAD","RCS_SIZE":"LARGE","LAUNCH_DATE":"2021-04-29","REF_FRAME":"TEME","ELEMENT_SET_NO":"999","PERIOD":"95.594","CENTER_NAME":"EARTH","SEMIMAJOR_AXIS":"6925.442","MEAN_MOTION":"15.06369471","RA_OF_ASC_NODE":"348.1832","OBJECT_NAME":"STARLINK-2495","GP_ID":"207848738","MEAN_ELEMENT_THEORY":"SGP4","MEAN_ANOMALY":"287.2549","PERIAPSIS":"546.207","ECCENTRICITY":"0.00015890","MEAN_MOTION_DOT":"0.00001307","APOAPSIS":"548.408","EPOCH":"2022-07-10T16:21:48.307104","CLASSIFICATION_TYPE":"U","BSTAR":"0.00010673000000","EPHEMERIS_TYPE":"0","ARG_OF_PERICENTER":"72.8613","MEAN_MOTION_DDOT":"0.0000000000000","SITE":"AFETR","DECAY_DATE":null,"NORAD_CAT_ID":"48325","TLE_LINE1":"1 48325U 21036BB  22191.68180911  .00001307  00000-0  10673-3 0  9994"},{"MEAN_MOTION":"15.06396888","RA_OF_ASC_NODE":"347.8969","GP_ID":"207874876","OBJECT_NAME":"STARLINK-2498","MEAN_ELEMENT_THEORY":"SGP4","MEAN_ANOMALY":"263.9554","TIME_SYSTEM":"UTC","COUNTRY_CODE":"US","INCLINATION":"53.0573","TLE_LINE2":"2 48326  53.0573 347.8969 0001325  96.1586 263.9554 15.06396888 66370","REV_AT_EPOCH":"6637","FILE":"3511318","LAUNCH_DATE":"2021-04-29","RCS_SIZE":"LARGE","OBJECT_ID":"2021-036BC","OBJECT_TYPE":"PAYLOAD","ELEMENT_SET_NO":"999","SEMIMAJOR_AXIS":"6925.358","PERIOD":"95.592","CENTER_NAME":"EARTH","REF_FRAME":"TEME","EPOCH":"2022-07-10T17:52:02.032608","ARG_OF_PERICENTER":"96.1586","EPHEMERIS_TYPE":"0","CLASSIFICATION_TYPE":"U","BSTAR":"-0.00013216000000","SITE":"AFETR","MEAN_MOTION_DDOT":"0.0000000000000","NORAD_CAT_ID":"48326","TLE_LINE1":"1 48326U 21036BC  22191.74446797 -.00002249  00000-0 -13216-3 0  9993","DECAY_DATE":null,"ECCENTRICITY":"0.00013250","PERIAPSIS":"546.305","MEAN_MOTION_DOT":"-0.00002249","APOAPSIS":"548.141"},{"RA_OF_ASC_NODE":"347.6102","MEAN_MOTION":"15.06386945","MEAN_ANOMALY":"292.4213","MEAN_ELEMENT_THEORY":"SGP4","GP_ID":"207874621","OBJECT_NAME":"STARLINK-2502","TLE_LINE2":"2 48327  53.0565 347.6102 0001457  67.6930 292.4213 15.06386945 66384","FILE":"3511318","REV_AT_EPOCH":"6638","INCLINATION":"53.0565","COUNTRY_CODE":"US","TIME_SYSTEM":"UTC","PERIOD":"95.593","CENTER_NAME":"EARTH","SEMIMAJOR_AXIS":"6925.389","ELEMENT_SET_NO":"999","REF_FRAME":"TEME","LAUNCH_DATE":"2021-04-29","RCS_SIZE":"LARGE","OBJECT_ID":"2021-036BD","OBJECT_TYPE":"PAYLOAD","ARG_OF_PERICENTER":"67.6930","EPHEMERIS_TYPE":"0","BSTAR":"-0.00008808200000","CLASSIFICATION_TYPE":"U","EPOCH":"2022-07-10T19:22:15.677760","TLE_LINE1":"1 48327U 21036BD  22191.80712590 -.00001593  00000-0 -88082-4 0  9993","NORAD_CAT_ID":"48327","DECAY_DATE":null,"MEAN_MOTION_DDOT":"0.0000000000000","SITE":"AFETR","ECCENTRICITY":"0.00014570","PERIAPSIS":"546.245","APOAPSIS":"548.263","MEAN_MOTION_DOT":"-0.00001593"},{"MEAN_MOTION":"15.06391604","RA_OF_ASC_NODE":"347.6244","GP_ID":"207873375","OBJECT_NAME":"STARLINK-2504","MEAN_ELEMENT_THEORY":"SGP4","MEAN_ANOMALY":"280.4504","TIME_SYSTEM":"UTC","INCLINATION":"53.0565","COUNTRY_CODE":"US","TLE_LINE2":"2 48328  53.0565 347.6244 0001362  79.6638 280.4504 15.06391604 66383","REV_AT_EPOCH":"6638","FILE":"3511318","LAUNCH_DATE":"2021-04-29","RCS_SIZE":"LARGE","OBJECT_TYPE":"PAYLOAD","OBJECT_ID":"2021-036BE","ELEMENT_SET_NO":"999","CENTER_NAME":"EARTH","PERIOD":"95.593","SEMIMAJOR_AXIS":"6925.374","REF_FRAME":"TEME","EPOCH":"2022-07-10T19:15:34.807680","EPHEMERIS_TYPE":"0","ARG_OF_PERICENTER":"79.6638","BSTAR":"-0.00008394000000","CLASSIFICATION_TYPE":"U","SITE":"AFETR","MEAN_MOTION_DDOT":"0.0000000000000","NORAD_CAT_ID":"48328","TLE_LINE1":"1 48328U 21036BE  22191.80248620 -.00001531  00000-0 -83940-4 0  9992","DECAY_DATE":null,"ECCENTRICITY":"0.00013620","PERIAPSIS":"546.296","MEAN_MOTION_DOT":"-0.00001531","APOAPSIS":"548.183"},{"APOAPSIS":"548.355","MEAN_MOTION_DOT":"0.00008057","ECCENTRICITY":"0.00015950","PERIAPSIS":"546.146","TLE_LINE1":"1 48329U 21036BF  22191.79974997  .00008057  00000-0  55938-3 0  9997","NORAD_CAT_ID":"48329","DECAY_DATE":null,"MEAN_MOTION_DDOT":"0.0000000000000","SITE":"AFETR","EPHEMERIS_TYPE":"0","ARG_OF_PERICENTER":"48.8248","BSTAR":"0.00055938000000","CLASSIFICATION_TYPE":"U","EPOCH":"2022-07-10T19:11:38.397408","CENTER_NAME":"EARTH","PERIOD":"95.593","SEMIMAJOR_AXIS":"6925.386","ELEMENT_SET_NO":"999","REF_FRAME":"TEME","RCS_SIZE":"LARGE","LAUNCH_DATE":"2021-04-29","OBJECT_TYPE":"PAYLOAD","OBJECT_ID":"2021-036BF","TLE_LINE2":"2 48329  53.0544 347.6454 0001595  48.8248 311.2879 15.06387825 66385","FILE":"3511318","REV_AT_EPOCH":"6638","INCLINATION":"53.0544","COUNTRY_CODE":"US","TIME_SYSTEM":"UTC","MEAN_ANOMALY":"311.2879","MEAN_ELEMENT_THEORY":"SGP4","GP_ID":"207873625","OBJECT_NAME":"STARLINK-2510","RA_OF_ASC_NODE":"347.6454","MEAN_MOTION":"15.06387825"},{"FILE":"3511240","REV_AT_EPOCH":"6697","TLE_LINE2":"2 48330  53.0549 347.6621 0001329  89.2829 270.8312 15.06373132 66970","COUNTRY_CODE":"US","INCLINATION":"53.0549","TIME_SYSTEM":"UTC","REF_FRAME":"TEME","PERIOD":"95.594","SEMIMAJOR_AXIS":"6925.431","CENTER_NAME":"EARTH","ELEMENT_SET_NO":"999","OBJECT_TYPE":"PAYLOAD","OBJECT_ID":"2021-036BG","LAUNCH_DATE":"2021-04-29","RCS_SIZE":"LARGE","RA_OF_ASC_NODE":"347.6621","MEAN_MOTION":"15.06373132","MEAN_ELEMENT_THEORY":"SGP4","MEAN_ANOMALY":"270.8312","OBJECT_NAME":"STARLINK-2501","GP_ID":"207850866","PERIAPSIS":"546.376","ECCENTRICITY":"0.00013290","APOAPSIS":"548.216","MEAN_MOTION_DOT":"-0.00000741","BSTAR":"-0.00003091400000","CLASSIFICATION_TYPE":"U","ARG_OF_PERICENTER":"89.2829","EPHEMERIS_TYPE":"0","EPOCH":"2022-07-10T19:06:20.883456","DECAY_DATE":null,"TLE_LINE1":"1 48330U 21036BG  22191.79607504 -.00000741  00000-0 -30914-4 0  9998","NORAD_CAT_ID":"48330","MEAN_MOTION_DDOT":"0.0000000000000","SITE":"AFETR"},{"EPHEMERIS_TYPE":"0","ARG_OF_PERICENTER":"75.9395","BSTAR":"0.00009321200000","CLASSIFICATION_TYPE":"U","EPOCH":"2022-07-10T17:25:29.396352","TLE_LINE1":"1 48331U 21036BH  22191.72603468  .00001107  00000-0  93212-4 0  9992","NORAD_CAT_ID":"48331","DECAY_DATE":null,"MEAN_MOTION_DDOT":"0.0000000000000","SITE":"AFETR","ECCENTRICITY":"0.00013850","PERIAPSIS":"546.248","APOAPSIS":"548.167","MEAN_MOTION_DOT":"0.00001107","RA_OF_ASC_NODE":"347.9793","MEAN_MOTION":"15.06402009","MEAN_ANOMALY":"284.1748","MEAN_ELEMENT_THEORY":"SGP4","GP_ID":"207849333","OBJECT_NAME":"STARLINK-2514","TLE_LINE2":"2 48331  53.0559 347.9793 0001385  75.9395 284.1748 15.06402009 66963","FILE":"3511171","REV_AT_EPOCH":"6696","INCLINATION":"53.0559","COUNTRY_CODE":"US","TIME_SYSTEM":"UTC","CENTER_NAME":"EARTH","PERIOD":"95.592","SEMIMAJOR_AXIS":"6925.342","ELEMENT_SET_NO":"999","REF_FRAME":"TEME","LAUNCH_DATE":"2021-04-29","RCS_SIZE":"LARGE","OBJECT_TYPE":"PAYLOAD","OBJECT_ID":"2021-036BH"}];
